{
  "type": "FeatureCollection",
  "features": [
    {
      "type": "Feature",
      "properties": {
        "norad_id": 58647,
        "name": "TIANMU-1 13",
        "group": "weather",
        "lat": 2.1791633704002726,
        "lon": 177.52910741377576,
        "alt_km": 498.5177270199747,
        "timestamp": "2025-12-03T10:52:57.090564+00:00",
        "meta_object_name": "TIANMU-1 13",
        "meta_object_id": "2023-205C",
        "meta_epoch": "2025-12-03T03:48:11.238624",
        "meta_mean_motion": 15.24331398,
        "meta_eccentricity": 0.0006423,
        "meta_inclination": 97.3628,
        "meta_ra_of_asc_node": 356.9574,
        "meta_arg_of_pericenter": 310.3492,
        "meta_mean_anomaly": 49.7184,
        "meta_ephemeris_type": 0,
        "meta_classification_type": "U",
        "meta_norad_cat_id": 58647,
        "meta_element_set_no": 999,
        "meta_rev_at_epoch": 10761,
        "meta_bstar": 0.00035514,
        "meta_mean_motion_dot": 8.624e-05,
        "meta_mean_motion_ddot": 0,
        "tle_line1": "1 58647U 23205C   25337.15846341  .00008624  00000+0  35514-3 0  9994",
        "tle_line2": "2 58647  97.3628 356.9574 0006423 310.3492  49.7184 15.24331398107610"
      },
      "geometry": {
        "type": "Point",
        "coordinates": [
          177.52910741377576,
          2.1791633704002726
        ]
      }
    },
    {
      "type": "Feature",
      "properties": {
        "norad_id": 58648,
        "name": "TIANMU-1 14",
        "group": "weather",
        "lat": -82.60194366189393,
        "lon": 92.3659311515969,
        "alt_km": 496.58495200716334,
        "timestamp": "2025-12-03T10:52:57.090574+00:00",
        "meta_object_name": "TIANMU-1 14",
        "meta_object_id": "2023-205D",
        "meta_epoch": "2025-12-03T03:24:08.072640",
        "meta_mean_motion": 15.24316033,
        "meta_eccentricity": 0.0007322,
        "meta_inclination": 97.356,
        "meta_ra_of_asc_node": 356.2985,
        "meta_arg_of_pericenter": 314.5275,
        "meta_mean_anomaly": 45.5364,
        "meta_ephemeris_type": 0,
        "meta_classification_type": "U",
        "meta_norad_cat_id": 58648,
        "meta_element_set_no": 999,
        "meta_rev_at_epoch": 10761,
        "meta_bstar": 0.00036532,
        "meta_mean_motion_dot": 8.87e-05,
        "meta_mean_motion_ddot": 0,
        "tle_line1": "1 58648U 23205D   25337.14176010  .00008870  00000+0  36532-3 0  9997",
        "tle_line2": "2 58648  97.3560 356.2985 0007322 314.5275  45.5364 15.24316033107612"
      },
      "geometry": {
        "type": "Point",
        "coordinates": [
          92.3659311515969,
          -82.60194366189393
        ]
      }
    },
    {
      "type": "Feature",
      "properties": {
        "norad_id": 58660,
        "name": "TIANMU-1 19",
        "group": "weather",
        "lat": 53.33042422295422,
        "lon": 78.40332807706945,
        "alt_km": 479.4713954317431,
        "timestamp": "2025-12-03T10:52:57.090585+00:00",
        "meta_object_name": "TIANMU-1 19",
        "meta_object_id": "2023-208A",
        "meta_epoch": "2025-12-03T05:55:50.193408",
        "meta_mean_motion": 15.27571648,
        "meta_eccentricity": 0.0004097,
        "meta_inclination": 97.4393,
        "meta_ra_of_asc_node": 88.3051,
        "meta_arg_of_pericenter": 295.4884,
        "meta_mean_anomaly": 64.5931,
        "meta_ephemeris_type": 0,
        "meta_classification_type": "U",
        "meta_norad_cat_id": 58660,
        "meta_element_set_no": 999,
        "meta_rev_at_epoch": 10737,
        "meta_bstar": 0.0004846,
        "meta_mean_motion_dot": 0.00013004,
        "meta_mean_motion_ddot": 0,
        "tle_line1": "1 58660U 23208A   25337.24710872  .00013004  00000+0  48460-3 0  9993",
        "tle_line2": "2 58660  97.4393  88.3051 0004097 295.4884  64.5931 15.27571648107379"
      },
      "geometry": {
        "type": "Point",
        "coordinates": [
          78.40332807706945,
          53.33042422295422
        ]
      }
    },
    {
      "type": "Feature",
      "properties": {
        "norad_id": 58661,
        "name": "TIANMU-1 20",
        "group": "weather",
        "lat": 82.41871032076227,
        "lon": 10.167962236059052,
        "alt_km": 475.601351348374,
        "timestamp": "2025-12-03T10:52:57.090595+00:00",
        "meta_object_name": "TIANMU-1 20",
        "meta_object_id": "2023-208B",
        "meta_epoch": "2025-12-03T04:12:47.005056",
        "meta_mean_motion": 15.28762421,
        "meta_eccentricity": 0.0006469,
        "meta_inclination": 97.4329,
        "meta_ra_of_asc_node": 88.672,
        "meta_arg_of_pericenter": 305.8023,
        "meta_mean_anomaly": 54.2615,
        "meta_ephemeris_type": 0,
        "meta_classification_type": "U",
        "meta_norad_cat_id": 58661,
        "meta_element_set_no": 999,
        "meta_rev_at_epoch": 10743,
        "meta_bstar": 0.00045364,
        "meta_mean_motion_dot": 0.00012623,
        "meta_mean_motion_ddot": 0,
        "tle_line1": "1 58661U 23208B   25337.17554404  .00012623  00000+0  45364-3 0  9999",
        "tle_line2": "2 58661  97.4329  88.6720 0006469 305.8023  54.2615 15.28762421107435"
      },
      "geometry": {
        "type": "Point",
        "coordinates": [
          10.167962236059052,
          82.41871032076227
        ]
      }
    },
    {
      "type": "Feature",
      "properties": {
        "norad_id": 58662,
        "name": "TIANMU-1 21",
        "group": "weather",
        "lat": 10.002582571684018,
        "lon": 89.49631338530902,
        "alt_km": 472.51420050894103,
        "timestamp": "2025-12-03T10:52:57.090605+00:00",
        "meta_object_name": "TIANMU-1 21",
        "meta_object_id": "2023-208C",
        "meta_epoch": "2025-12-03T04:33:54.357408",
        "meta_mean_motion": 15.31225503,
        "meta_eccentricity": 0.0005972,
        "meta_inclination": 97.4376,
        "meta_ra_of_asc_node": 90.5526,
        "meta_arg_of_pericenter": 300.0168,
        "meta_mean_anomaly": 60.048,
        "meta_ephemeris_type": 0,
        "meta_classification_type": "U",
        "meta_norad_cat_id": 58662,
        "meta_element_set_no": 999,
        "meta_rev_at_epoch": 10753,
        "meta_bstar": 0.00049712,
        "meta_mean_motion_dot": 0.00014936,
        "meta_mean_motion_ddot": 0,
        "tle_line1": "1 58662U 23208C   25337.19021247  .00014936  00000+0  49712-3 0  9996",
        "tle_line2": "2 58662  97.4376  90.5526 0005972 300.0168  60.0480 15.31225503107534"
      },
      "geometry": {
        "type": "Point",
        "coordinates": [
          89.49631338530902,
          10.002582571684018
        ]
      }
    },
    {
      "type": "Feature",
      "properties": {
        "norad_id": 58663,
        "name": "TIANMU-1 22",
        "group": "weather",
        "lat": 62.15756240102884,
        "lon": 74.2523613674588,
        "alt_km": 477.7919264958455,
        "timestamp": "2025-12-03T10:52:57.090615+00:00",
        "meta_object_name": "TIANMU-1 22",
        "meta_object_id": "2023-208D",
        "meta_epoch": "2025-12-03T05:53:24.966240",
        "meta_mean_motion": 15.27345736,
        "meta_eccentricity": 0.0003077,
        "meta_inclination": 97.4387,
        "meta_ra_of_asc_node": 88.3667,
        "meta_arg_of_pericenter": 331.7815,
        "meta_mean_anomaly": 28.3257,
        "meta_ephemeris_type": 0,
        "meta_classification_type": "U",
        "meta_norad_cat_id": 58663,
        "meta_element_set_no": 999,
        "meta_rev_at_epoch": 10738,
        "meta_bstar": 0.0004567,
        "meta_mean_motion_dot": 0.00012165,
        "meta_mean_motion_ddot": 0,
        "tle_line1": "1 58663U 23208D   25337.24542785  .00012165  00000+0  45670-3 0  9999",
        "tle_line2": "2 58663  97.4387  88.3667 0003077 331.7815  28.3257 15.27345736107380"
      },
      "geometry": {
        "type": "Point",
        "coordinates": [
          74.2523613674588,
          62.15756240102884
        ]
      }
    },
    {
      "type": "Feature",
      "properties": {
        "norad_id": 58700,
        "name": "TIANMU-1 15",
        "group": "weather",
        "lat": -69.48132958907904,
        "lon": 179.45833322516418,
        "alt_km": 496.9052494055404,
        "timestamp": "2025-12-03T10:52:57.090626+00:00",
        "meta_object_name": "TIANMU-1 15",
        "meta_object_id": "2024-004A",
        "meta_epoch": "2025-12-03T04:53:28.415040",
        "meta_mean_motion": 15.24474622,
        "meta_eccentricity": 0.0005799,
        "meta_inclination": 97.4625,
        "meta_ra_of_asc_node": 158.7079,
        "meta_arg_of_pericenter": 336.6565,
        "meta_mean_anomaly": 23.4408,
        "meta_ephemeris_type": 0,
        "meta_classification_type": "U",
        "meta_norad_cat_id": 58700,
        "meta_element_set_no": 999,
        "meta_rev_at_epoch": 10589,
        "meta_bstar": 0.00038799,
        "meta_mean_motion_dot": 9.467e-05,
        "meta_mean_motion_ddot": 0,
        "tle_line1": "1 58700U 24004A   25337.20380110  .00009467  00000+0  38799-3 0  9999",
        "tle_line2": "2 58700  97.4625 158.7079 0005799 336.6565  23.4408 15.24474622105897"
      },
      "geometry": {
        "type": "Point",
        "coordinates": [
          179.45833322516418,
          -69.48132958907904
        ]
      }
    }
  ]
}